{
    "links": {
        "self": "http://www.neowsapp.com/rest/v1/neo/3836136?api_key=iIulBulltgU6a56xZRHN4H3l9WmuAYTsLGpBGhQ2"
    },
    "id": "3836136",
    "neo_reference_id": "3836136",
    "name": "(2018 VX5)",
    "designation": "2018 VX5",
    "nasa_jpl_url": "http://ssd.jpl.nasa.gov/sbdb.cgi?sstr=3836136",
    "absolute_magnitude_h": 25.7,
    "estimated_diameter": {
        "kilometers": {
            "estimated_diameter_min": 0.0192555078,
            "estimated_diameter_max": 0.0430566244
        },
        "meters": {
            "estimated_diameter_min": 19.2555078188,
            "estimated_diameter_max": 43.0566244241
        },
        "miles": {
            "estimated_diameter_min": 0.0119648141,
            "estimated_diameter_max": 0.0267541378
        },
        "feet": {
            "estimated_diameter_min": 63.1742402722,
            "estimated_diameter_max": 141.2618956756
        }
    },
    "is_potentially_hazardous_asteroid": false,
    "close_approach_data": [
        {
            "close_approach_date": "2018-11-13",
            "close_approach_date_full": "2018-Nov-13 19:25",
            "epoch_date_close_approach": 1542137100000,
            "relative_velocity": {
                "kilometers_per_second": "8.9992271635",
                "kilometers_per_hour": "32397.2177884225",
                "miles_per_hour": "20130.3712419229"
            },
            "miss_distance": {
                "astronomical": "0.0088704963",
                "lunar": "3.4506230607",
                "kilometers": "1327007.352322881",
                "miles": "824564.1331865178"
            },
            "orbiting_body": "Moon"
        },
        {
            "close_approach_date": "2018-11-14",
            "close_approach_date_full": "2018-Nov-14 04:44",
            "epoch_date_close_approach": 1542170640000,
            "relative_velocity": {
                "kilometers_per_second": "8.3294693819",
                "kilometers_per_hour": "29986.0897748022",
                "miles_per_hour": "18632.1900603486"
            },
            "miss_distance": {
                "astronomical": "0.0092762953",
                "lunar": "3.6084788717",
                "kilometers": "1387714.018371011",
                "miles": "862285.5063055118"
            },
            "orbiting_body": "Earth"
        }
    ],
    "orbital_data": {
        "orbit_id": "7",
        "orbit_determination_date": "2018-11-16 06:25:04",
        "first_observation_date": "2018-11-08",
        "last_observation_date": "2018-11-12",
        "data_arc_in_days": 4,
        "observations_used": 32,
        "orbit_uncertainty": "8",
        "minimum_orbit_intersection": ".0078069",
        "jupiter_tisserand_invariant": "3.207",
        "epoch_osculation": "2458431.5",
        "eccentricity": ".6029190279088353",
        "semi_major_axis": "2.466169279694746",
        "inclination": "2.91347310468078",
        "ascending_node_longitude": "41.0727579246339",
        "orbital_period": "1414.597063579382",
        "perihelion_distance": ".9792688949225571",
        "perihelion_argument": "23.79426314589751",
        "aphelion_distance": "3.953069664466935",
        "perihelion_time": "2458447.240103875205",
        "mean_anomaly": "355.9943099409977",
        "mean_motion": ".2544894297243097",
        "equinox": "J2000",
        "orbit_class": {
            "orbit_class_type": "APO",
            "orbit_class_description": "Near-Earth asteroid orbits which cross the Earth’s orbit similar to that of 1862 Apollo",
            "orbit_class_range": "a (semi-major axis) > 1.0 AU; q (perihelion) < 1.017 AU"
        }
    },
    "is_sentry_object": false
}